[{"OBJECT_NAME":"STARLINK-1812","OBJECT_ID":"2020-088E","EPOCH":"2026-03-09T21:44:17.393568","MEAN_MOTION":15.15107348,"ECCENTRICITY":0.00027492,"INCLINATION":53.0793,"RA_OF_ASC_NODE":298.6686,"ARG_OF_PERICENTER":128.8313,"MEAN_ANOMALY":231.2926,"EPHEMERIS_TYPE":0,"CLASSIFICATION_TYPE":"U","NORAD_CAT_ID":47126,"ELEMENT_SET_NO":999,"REV_AT_EPOCH":29190,"BSTAR":0.0020820336,"MEAN_MOTION_DOT":0.00039367,"MEAN_MOTION_DDOT":0},{"OBJECT_NAME":"OBJECT A","OBJECT_ID":"2025-180A","EPOCH":"2026-03-01T05:02:02.349888","MEAN_MOTION":15.19541211,"ECCENTRICITY":0.00119112,"INCLINATION":97.5026,"RA_OF_ASC_NODE":189.2879,"ARG_OF_PERICENTER":335.2896,"MEAN_ANOMALY":24.7766,"EPHEMERIS_TYPE":0,"CLASSIFICATION_TYPE":"U","NORAD_CAT_ID":65259,"ELEMENT_SET_NO":999,"REV_AT_EPOCH":2937,"BSTAR":0.0010883245,"MEAN_MOTION_DOT":0.00023159,"MEAN_MOTION_DDOT":0}]
